STARLINK-32861          
1 62870U 25022S   26070.51601903  .00026943  00000+0  91868-3 0  9992
2 62870  53.1601 120.8577 0001244  73.8565 286.2572 15.30194283 62181
STARLINK-32814          
1 62871U 25022T   26070.41704802  .00021655  00000+0  74136-3 0  9998
2 62871  53.1577 121.6588 0001143  64.5013 295.6106 15.30190431 62164
STARLINK-32849          
1 62872U 25022U   26070.43923147  .00026716  00000+0  91117-3 0  9997
2 62872  53.1584 121.8000 0001223  93.6137 266.5003 15.30190538 62164
STARLINK-32833          
1 62873U 25022V   26070.40332404  .00015696  00000+0  54054-3 0  9999
2 62873  53.1600 121.5733 0000492 112.5674 247.5379 15.30224266 62169
STARLINK-32793          
1 62874U 25022W   26070.42232161  .00010041  00000+0  35067-3 0  9993
2 62874  53.1584 121.6951 0001166  77.9959 282.1172 15.30201616 62163
STARLINK-32834          
1 62875U 25022X   26070.53607065  .00027425  00000+0  93484-3 0  9996
2 62875  53.1593 120.9794 0001698  90.8055 269.3141 15.30193973 62183
STARLINK-11371 [DTC]    
1 62879U 25024A   26070.28138058  .00258706  00000+0  19468-2 0  9992
2 62879  42.9994 172.1583 0001675 250.5941 109.4746 15.70971770 63715
STARLINK-11352 [DTC]    
1 62880U 25024B   26070.56213565  .00217566  00000+0  16546-2 0  9995
2 62880  42.9995 169.9422 0001492 138.9875 221.1105 15.70846494 63766
STARLINK-11382 [DTC]    
1 62881U 25024C   26070.32903840  .00269622  00000+0  20250-2 0  9999
2 62881  43.0006 171.6456 0002326 248.6199 111.4421 15.70983510 63723
STARLINK-11432 [DTC]    
1 62882U 25024D   26070.27606127  .00412198  00000+0  30295-2 0  9990
2 62882  42.9989 172.1151 0001846 263.8645  96.2013 15.71072772 63717
STARLINK-11419 [DTC]    
1 62883U 25024E   26070.32372682  .00060558  00000+0  47123-3 0  9991
2 62883  42.9993 171.6029 0001051 247.5487 112.5269 15.70879710 63724
STARLINK-11437 [DTC]    
1 62884U 25024F   26070.39793352  .00269699  00000+0  20378-2 0  9999
2 62884  42.9993 171.3039 0005299 292.9416  67.0892 15.70830149 63737
STARLINK-11442 [DTC]    
1 62885U 25024G   26070.42435083  .00213319  00000+0  16253-2 0  9993
2 62885  42.9987 170.6202 0003104 298.9057  61.1499 15.70812576 63748
STARLINK-11365 [DTC]    
1 62886U 25024H   26070.30248961  .00300003  00000+0  22499-2 0  9994
2 62886  42.9986 171.4303 0001672 268.6703  91.3973 15.70926549 63725
STARLINK-11436 [DTC]    
1 62887U 25024J   26070.25483638  .00240007  00000+0  18185-2 0  9995
2 62887  42.9994 171.9414 0001061 281.5012  78.5736 15.70865796 63711
STARLINK-11438 [DTC]    
1 62888U 25024K   26070.30339772  .00360006  00000+0  26781-2 0  9994
2 62888  42.9978 171.4359 0001580 269.7006  90.3681 15.70939813 63728
