[{"OBJECT_NAME":"STARLINK-32861","OBJECT_ID":"2025-022S","EPOCH":"2026-03-11T12:23:04.044192","MEAN_MOTION":15.30194283,"ECCENTRICITY":0.0001244,"INCLINATION":53.1601,"RA_OF_ASC_NODE":120.8577,"ARG_OF_PERICENTER":73.8565,"MEAN_ANOMALY":286.2572,"EPHEMERIS_TYPE":0,"CLASSIFICATION_TYPE":"U","NORAD_CAT_ID":62870,"ELEMENT_SET_NO":999,"REV_AT_EPOCH":6218,"BSTAR":0.00091868,"MEAN_MOTION_DOT":0.00026943,"MEAN_MOTION_DDOT":0},{"OBJECT_NAME":"STARLINK-32814","OBJECT_ID":"2025-022T","EPOCH":"2026-03-11T10:00:32.948928","MEAN_MOTION":15.30190431,"ECCENTRICITY":0.0001143,"INCLINATION":53.1577,"RA_OF_ASC_NODE":121.6588,"ARG_OF_PERICENTER":64.5013,"MEAN_ANOMALY":295.6106,"EPHEMERIS_TYPE":0,"CLASSIFICATION_TYPE":"U","NORAD_CAT_ID":62871,"ELEMENT_SET_NO":999,"REV_AT_EPOCH":6216,"BSTAR":0.00074136,"MEAN_MOTION_DOT":0.00021655,"MEAN_MOTION_DDOT":0},{"OBJECT_NAME":"STARLINK-32849","OBJECT_ID":"2025-022U","EPOCH":"2026-03-11T10:32:29.599008","MEAN_MOTION":15.30190538,"ECCENTRICITY":0.0001223,"INCLINATION":53.1584,"RA_OF_ASC_NODE":121.8,"ARG_OF_PERICENTER":93.6137,"MEAN_ANOMALY":266.5003,"EPHEMERIS_TYPE":0,"CLASSIFICATION_TYPE":"U","NORAD_CAT_ID":62872,"ELEMENT_SET_NO":999,"REV_AT_EPOCH":6216,"BSTAR":0.00091117,"MEAN_MOTION_DOT":0.00026716,"MEAN_MOTION_DDOT":0},{"OBJECT_NAME":"STARLINK-32833","OBJECT_ID":"2025-022V","EPOCH":"2026-03-11T09:40:47.197056","MEAN_MOTION":15.30224266,"ECCENTRICITY":4.92e-5,"INCLINATION":53.16,"RA_OF_ASC_NODE":121.5733,"ARG_OF_PERICENTER":112.5674,"MEAN_ANOMALY":247.5379,"EPHEMERIS_TYPE":0,"CLASSIFICATION_TYPE":"U","NORAD_CAT_ID":62873,"ELEMENT_SET_NO":999,"REV_AT_EPOCH":6216,"BSTAR":0.00054054,"MEAN_MOTION_DOT":0.00015696,"MEAN_MOTION_DDOT":0},{"OBJECT_NAME":"STARLINK-32793","OBJECT_ID":"2025-022W","EPOCH":"2026-03-11T10:08:08.587104","MEAN_MOTION":15.30201616,"ECCENTRICITY":0.0001166,"INCLINATION":53.1584,"RA_OF_ASC_NODE":121.6951,"ARG_OF_PERICENTER":77.9959,"MEAN_ANOMALY":282.1172,"EPHEMERIS_TYPE":0,"CLASSIFICATION_TYPE":"U","NORAD_CAT_ID":62874,"ELEMENT_SET_NO":999,"REV_AT_EPOCH":6216,"BSTAR":0.00035067,"MEAN_MOTION_DOT":0.00010041,"MEAN_MOTION_DDOT":0},{"OBJECT_NAME":"STARLINK-32834","OBJECT_ID":"2025-022X","EPOCH":"2026-03-11T12:51:56.504160","MEAN_MOTION":15.30193973,"ECCENTRICITY":0.0001698,"INCLINATION":53.1593,"RA_OF_ASC_NODE":120.9794,"ARG_OF_PERICENTER":90.8055,"MEAN_ANOMALY":269.3141,"EPHEMERIS_TYPE":0,"CLASSIFICATION_TYPE":"U","NORAD_CAT_ID":62875,"ELEMENT_SET_NO":999,"REV_AT_EPOCH":6218,"BSTAR":0.00093484,"MEAN_MOTION_DOT":0.00027425,"MEAN_MOTION_DDOT":0},{"OBJECT_NAME":"STARLINK-11371 [DTC]","OBJECT_ID":"2025-024A","EPOCH":"2026-03-11T06:45:11.282112","MEAN_MOTION":15.7097177,"ECCENTRICITY":0.0001675,"INCLINATION":42.9994,"RA_OF_ASC_NODE":172.1583,"ARG_OF_PERICENTER":250.5941,"MEAN_ANOMALY":109.4746,"EPHEMERIS_TYPE":0,"CLASSIFICATION_TYPE":"U","NORAD_CAT_ID":62879,"ELEMENT_SET_NO":999,"REV_AT_EPOCH":6371,"BSTAR":0.0019468,"MEAN_MOTION_DOT":0.00258706,"MEAN_MOTION_DDOT":0},{"OBJECT_NAME":"STARLINK-11352 [DTC]","OBJECT_ID":"2025-024B","EPOCH":"2026-03-11T13:29:28.520160","MEAN_MOTION":15.70846494,"ECCENTRICITY":0.0001492,"INCLINATION":42.9995,"RA_OF_ASC_NODE":169.9422,"ARG_OF_PERICENTER":138.9875,"MEAN_ANOMALY":221.1105,"EPHEMERIS_TYPE":0,"CLASSIFICATION_TYPE":"U","NORAD_CAT_ID":62880,"ELEMENT_SET_NO":999,"REV_AT_EPOCH":6376,"BSTAR":0.0016546,"MEAN_MOTION_DOT":0.00217566,"MEAN_MOTION_DDOT":0},{"OBJECT_NAME":"STARLINK-11382 [DTC]","OBJECT_ID":"2025-024C","EPOCH":"2026-03-11T07:53:48.917760","MEAN_MOTION":15.7098351,"ECCENTRICITY":0.0002326,"INCLINATION":43.0006,"RA_OF_ASC_NODE":171.6456,"ARG_OF_PERICENTER":248.6199,"MEAN_ANOMALY":111.4421,"EPHEMERIS_TYPE":0,"CLASSIFICATION_TYPE":"U","NORAD_CAT_ID":62881,"ELEMENT_SET_NO":999,"REV_AT_EPOCH":6372,"BSTAR":0.002025,"MEAN_MOTION_DOT":0.00269622,"MEAN_MOTION_DDOT":0},{"OBJECT_NAME":"STARLINK-11432 [DTC]","OBJECT_ID":"2025-024D","EPOCH":"2026-03-11T06:37:31.693728","MEAN_MOTION":15.71072772,"ECCENTRICITY":0.0001846,"INCLINATION":42.9989,"RA_OF_ASC_NODE":172.1151,"ARG_OF_PERICENTER":263.8645,"MEAN_ANOMALY":96.2013,"EPHEMERIS_TYPE":0,"CLASSIFICATION_TYPE":"U","NORAD_CAT_ID":62882,"ELEMENT_SET_NO":999,"REV_AT_EPOCH":6371,"BSTAR":0.0030295,"MEAN_MOTION_DOT":0.00412198,"MEAN_MOTION_DDOT":0},{"OBJECT_NAME":"STARLINK-11419 [DTC]","OBJECT_ID":"2025-024E","EPOCH":"2026-03-11T07:46:09.997248","MEAN_MOTION":15.7087971,"ECCENTRICITY":0.0001051,"INCLINATION":42.9993,"RA_OF_ASC_NODE":171.6029,"ARG_OF_PERICENTER":247.5487,"MEAN_ANOMALY":112.5269,"EPHEMERIS_TYPE":0,"CLASSIFICATION_TYPE":"U","NORAD_CAT_ID":62883,"ELEMENT_SET_NO":999,"REV_AT_EPOCH":6372,"BSTAR":0.00047123,"MEAN_MOTION_DOT":0.00060558,"MEAN_MOTION_DDOT":0},{"OBJECT_NAME":"STARLINK-11437 [DTC]","OBJECT_ID":"2025-024F","EPOCH":"2026-03-11T09:33:01.456128","MEAN_MOTION":15.70830149,"ECCENTRICITY":0.0005299,"INCLINATION":42.9993,"RA_OF_ASC_NODE":171.3039,"ARG_OF_PERICENTER":292.9416,"MEAN_ANOMALY":67.0892,"EPHEMERIS_TYPE":0,"CLASSIFICATION_TYPE":"U","NORAD_CAT_ID":62884,"ELEMENT_SET_NO":999,"REV_AT_EPOCH":6373,"BSTAR":0.0020378,"MEAN_MOTION_DOT":0.00269699,"MEAN_MOTION_DDOT":0},{"OBJECT_NAME":"STARLINK-11442 [DTC]","OBJECT_ID":"2025-024G","EPOCH":"2026-03-11T10:11:03.911712","MEAN_MOTION":15.70812576,"ECCENTRICITY":0.0003104,"INCLINATION":42.9987,"RA_OF_ASC_NODE":170.6202,"ARG_OF_PERICENTER":298.9057,"MEAN_ANOMALY":61.1499,"EPHEMERIS_TYPE":0,"CLASSIFICATION_TYPE":"U","NORAD_CAT_ID":62885,"ELEMENT_SET_NO":999,"REV_AT_EPOCH":6374,"BSTAR":0.0016253,"MEAN_MOTION_DOT":0.00213319,"MEAN_MOTION_DDOT":0},{"OBJECT_NAME":"STARLINK-11365 [DTC]","OBJECT_ID":"2025-024H","EPOCH":"2026-03-11T07:15:35.102304","MEAN_MOTION":15.70926549,"ECCENTRICITY":0.0001672,"INCLINATION":42.9986,"RA_OF_ASC_NODE":171.4303,"ARG_OF_PERICENTER":268.6703,"MEAN_ANOMALY":91.3973,"EPHEMERIS_TYPE":0,"CLASSIFICATION_TYPE":"U","NORAD_CAT_ID":62886,"ELEMENT_SET_NO":999,"REV_AT_EPOCH":6372,"BSTAR":0.0022499,"MEAN_MOTION_DOT":0.00300003,"MEAN_MOTION_DDOT":0},{"OBJECT_NAME":"STARLINK-11436 [DTC]","OBJECT_ID":"2025-024J","EPOCH":"2026-03-11T06:06:57.863232","MEAN_MOTION":15.70865796,"ECCENTRICITY":0.0001061,"INCLINATION":42.9994,"RA_OF_ASC_NODE":171.9414,"ARG_OF_PERICENTER":281.5012,"MEAN_ANOMALY":78.5736,"EPHEMERIS_TYPE":0,"CLASSIFICATION_TYPE":"U","NORAD_CAT_ID":62887,"ELEMENT_SET_NO":999,"REV_AT_EPOCH":6371,"BSTAR":0.0018185,"MEAN_MOTION_DOT":0.00240007,"MEAN_MOTION_DDOT":0},{"OBJECT_NAME":"STARLINK-11438 [DTC]","OBJECT_ID":"2025-024K","EPOCH":"2026-03-11T07:16:53.563008","MEAN_MOTION":15.70939813,"ECCENTRICITY":0.000158,"INCLINATION":42.9978,"RA_OF_ASC_NODE":171.4359,"ARG_OF_PERICENTER":269.7006,"MEAN_ANOMALY":90.3681,"EPHEMERIS_TYPE":0,"CLASSIFICATION_TYPE":"U","NORAD_CAT_ID":62888,"ELEMENT_SET_NO":999,"REV_AT_EPOCH":6372,"BSTAR":0.0026781,"MEAN_MOTION_DOT":0.00360006,"MEAN_MOTION_DDOT":0}]
